BEESAT-4                
1 41619U 16040W   21060.14657172  .00001783  00000-0  74215-4 0  9996
2 41619  97.2847 119.2233 0010618   3.8138 356.3179 15.24980713248503
CAS-2T & KS-1Q          
1 41847U 16066G   21060.15092047  .00000134  00000-0  30344-4 0  9996
2 41847  98.6173 118.7580 0365486 183.4442 176.4221 14.38151857226318
NAYIF-1 (EO-88)         
1 42017U 17008BX  21060.43460021  .00002220  00000-0  84964-4 0  9990
2 42017  97.3284 129.9459 0007519 124.6091 235.5859 15.27580587224769
ZHUHAI-1 02 (CAS-4B)    
1 42759U 17034B   21060.36099188  .00000540  00000-0  45944-4 0  9994
2 42759  43.0174  55.2837 0009594 216.5466 281.9731 15.10090041204801
ZHUHAI-1 01 (CAS-4A)    
1 42761U 17034D   21060.35853617  .00000539  00000-0  45753-4 0  9997
2 42761  43.0183  54.4300 0010325 216.4881 285.5523 15.10171334204808
MAX VALIER SAT          
1 42778U 17036P   21060.38667141  .00001285  00000-0  57037-4 0  9992
2 42778  97.2709 112.4741 0011756 189.3843 170.7177 15.23254138204831
RADFXSAT (FOX-1B)       
1 43017U 17073E   21060.18667806  .00000905  00000-0  75944-4 0  9991
2 43017  97.7151 328.4345 0254328 293.7168  63.7550 14.79352576177118
FOX-1D (AO-92)          
1 43137U 18004AC  21060.46550725  .00001615  00000-0  67854-4 0  9991
2 43137  97.4172 135.5788 0007765 223.9228 136.1393 15.24856869174204
DIWATA-2B               
1 43678U 18084H   21060.52617827  .00000365  00000-0  42031-4 0  9994
2 43678  97.9070 185.3618 0011251  52.8713 307.3503 14.91715676127345
ES'HAIL 2               
1 43700U 18090A   21060.17943735  .00000137  00000-0  00000-0 0  9991
2 43700   0.0082 195.7270 0002407 184.0848 229.7533  1.00270500  8287
FOX-1CLIFF (AO-95)      
1 43770U 18099N   21060.44263713  .00000008  00000-0  58837-5 0  9991
2 43770  97.6767 132.9657 0015737  61.9978 298.2833 14.95211024122314
ITASAT 1                
1 43786U 18099AE  21060.45048653  .00000020  00000-0  69655-5 0  9997
2 43786  97.6782 133.5761 0016246  55.5897 304.6857 14.95519301122346
JY1SAT (JO-97)          
1 43803U 18099AX  21060.43132778  .00000263  00000-0  28692-4 0  9991
2 43803  97.6748 133.3237 0016358  55.8882 304.3888 14.95744971122349
UWE-4                   
1 43880U 18111E   21060.21995935  .00000911  00000-0  84643-4 0  9997
2 43880  97.6936 329.7689 0013822 105.0587 255.2165 14.96740280118895
PSAT2 (NO-104)          
1 44354U 19036R   21060.45389115  .00016755  00000-0  22999-3 0  9992
2 44354  28.5291 125.4632 0338990 187.6365 171.8967 15.09954287 92617
BRICSAT2 (NO-103)       
1 44355U 19036S   21060.45351283  .00037677  00000-0  45567-3 0  9990
2 44355  28.5287  95.9181 0292688 235.7019 121.5541 15.21931714 92914
JAISAT-1                
1 44419U 19038F   21060.35160284  .00001512  00000-0  87991-4 0  9998
2 44419  97.5753  25.5674 0020386 329.1854  30.8178 15.13427428 91442
DUCHIFAT-3              
1 44854U 19089C   21060.24859716  .00000830  00000-0  72988-4 0  9992
2 44854  36.9685  20.4677 0009061 337.2959  22.7378 14.99350180 66858
RS-44 & BREEZE-KM R/B   
1 44909U 19096E   21060.34438972  .00000023  00000-0  49180-4 0  9991
2 44909  82.5245 184.6320 0217019 346.1583  13.3626 12.79708557 55011
ORBITAL FACTORY 2 (OF-2)
1 45113U 19071C   21060.42373728  .00002516  00000-0  84265-4 0  9990
2 45113  51.6418 200.9838 0011782 262.5788  97.3856 15.34896295 60576
HUSKYSAT-1              
1 45119U 19071J   21060.43920891  .00002852  00000-0  93735-4 0  9991
2 45119  51.6418 200.3352 0011177 259.0503 100.9222 15.34994683 60579
BY70-2                  
1 45857U 20042B   21060.58165134  .00001453  00000-0  21463-3 0  9991
2 45857  97.9922 137.4453 0011388 192.6177 167.4746 14.76726085 35627
SALSAT                  
1 46495U 20068K   21060.57243583  .00001231  00000-0  94882-4 0  9992
2 46495  97.6843 358.7704 0017883  76.0664 284.2548 15.03356968 23124
BY70-3                  
1 46839U 20079N   21060.51377616  .00003857  00000-0  12372-3 0  9994
2 46839  97.2521 136.5204 0006195 221.6985 266.1196 15.32913005 17663
RADFXSAT-2 (AO-109)     
1 47311U 21002C   21060.18887552  .00001120  00000-0  61522-4 0  9998
2 47311  60.6858 336.3665 0018513 332.5556  27.4550 15.21290945  6399
